[{"OBJECT_NAME":"KUIPER-00136","OBJECT_ID":"2025-228R","EPOCH":"2026-03-09T23:29:35.456640","MEAN_MOTION":14.79944154,"ECCENTRICITY":0.00014544,"INCLINATION":51.902,"RA_OF_ASC_NODE":346.8663,"ARG_OF_PERICENTER":112.1854,"MEAN_ANOMALY":247.9263,"EPHEMERIS_TYPE":0,"CLASSIFICATION_TYPE":"U","NORAD_CAT_ID":65962,"ELEMENT_SET_NO":999,"REV_AT_EPOCH":2344,"BSTAR":0.00050307872,"MEAN_MOTION_DOT":3.617e-5,"MEAN_MOTION_DDOT":0},{"OBJECT_NAME":"CZ-4B DEB","OBJECT_ID":"1999-057EW","EPOCH":"2026-03-09T19:11:55.948704","MEAN_MOTION":14.7649363,"ECCENTRICITY":0.00549869,"INCLINATION":98.342,"RA_OF_ASC_NODE":152.0242,"ARG_OF_PERICENTER":314.0743,"MEAN_ANOMALY":45.5945,"EPHEMERIS_TYPE":0,"CLASSIFICATION_TYPE":"U","NORAD_CAT_ID":26260,"ELEMENT_SET_NO":999,"REV_AT_EPOCH":36943,"BSTAR":0.0011045642,"MEAN_MOTION_DOT":7.834e-5,"MEAN_MOTION_DDOT":0}]
